start=new Date('2022-10-12T00:00:00.000Z').valueOf();
sats=[{"FILE":"3603543","LAUNCH_DATE":"2022-03-19","PERIAPSIS":"538.585","APOAPSIS":"540.717","OBJECT_ID":"2022-029Z","REV_AT_EPOCH":"3278","MEAN_MOTION":"15.08870876","ECCENTRICITY":"0.00015410","SITE":"AFETR","MEAN_MOTION_DDOT":"0.0000000000000","MEAN_ELEMENT_THEORY":"SGP4","SEMIMAJOR_AXIS":"6917.786","TLE_LINE1":"1 52111U 22029Z   22284.36819774 -.00007981  00000-0 -48351-3 0  9999","GP_ID":"214783369","DECAY_DATE":null,"TIME_SYSTEM":"UTC","MEAN_MOTION_DOT":"-0.00007981","EPOCH":"2022-10-11T08:50:12.284736","RCS_SIZE":"LARGE","OBJECT_NAME":"STARLINK-3708","RA_OF_ASC_NODE":"269.5861","BSTAR":"-0.00048351000000","PERIOD":"95.436","COUNTRY_CODE":"US","EPHEMERIS_TYPE":"0","TLE_LINE2":"2 52111  53.2192 269.5861 0001541  49.2776 310.8350 15.08870876 32787","INCLINATION":"53.2192","ARG_OF_PERICENTER":"49.2776","ELEMENT_SET_NO":"999","NORAD_CAT_ID":"52111","REF_FRAME":"TEME","CENTER_NAME":"EARTH","CLASSIFICATION_TYPE":"U","MEAN_ANOMALY":"310.8350","OBJECT_TYPE":"PAYLOAD"},{"INCLINATION":"53.2183","TLE_LINE2":"2 52112  53.2183 269.5449 0001858  54.1054 306.0110 15.08829290 32780","EPHEMERIS_TYPE":"0","COUNTRY_CODE":"US","PERIOD":"95.438","BSTAR":"-0.00000590700000","RA_OF_ASC_NODE":"269.5449","OBJECT_NAME":"STARLINK-3734","RCS_SIZE":"LARGE","EPOCH":"2022-10-11T09:00:49.584960","OBJECT_TYPE":"PAYLOAD","MEAN_ANOMALY":"306.0110","CLASSIFICATION_TYPE":"U","REF_FRAME":"TEME","CENTER_NAME":"EARTH","NORAD_CAT_ID":"52112","ELEMENT_SET_NO":"999","ARG_OF_PERICENTER":"54.1054","SITE":"AFETR","ECCENTRICITY":"0.00018580","OBJECT_ID":"2022-029AA","MEAN_MOTION":"15.08829290","REV_AT_EPOCH":"3278","APOAPSIS":"541.063","LAUNCH_DATE":"2022-03-19","PERIAPSIS":"538.493","FILE":"3603543","MEAN_MOTION_DOT":"-0.00000382","TIME_SYSTEM":"UTC","DECAY_DATE":null,"GP_ID":"214784121","TLE_LINE1":"1 52112U 22029AA  22284.37557390 -.00000382  00000-0 -59070-5 0  9994","SEMIMAJOR_AXIS":"6917.913","MEAN_ELEMENT_THEORY":"SGP4","MEAN_MOTION_DDOT":"0.0000000000000"},{"OBJECT_NAME":"STARLINK-3736","RA_OF_ASC_NODE":"269.6085","BSTAR":"-0.00010848000000","PERIOD":"95.438","COUNTRY_CODE":"US","EPHEMERIS_TYPE":"0","TLE_LINE2":"2 52113  53.2181 269.6085 0001899  51.7337 308.3826 15.08829683 32783","INCLINATION":"53.2181","EPOCH":"2022-10-11T08:39:37.229184","RCS_SIZE":"LARGE","MEAN_ANOMALY":"308.3826","OBJECT_TYPE":"PAYLOAD","ARG_OF_PERICENTER":"51.7337","ELEMENT_SET_NO":"999","NORAD_CAT_ID":"52113","CENTER_NAME":"EARTH","REF_FRAME":"TEME","CLASSIFICATION_TYPE":"U","FILE":"3603543","PERIAPSIS":"538.463","LAUNCH_DATE":"2022-03-19","APOAPSIS":"541.091","OBJECT_ID":"2022-029AB","MEAN_MOTION":"15.08829683","REV_AT_EPOCH":"3278","ECCENTRICITY":"0.00018990","SITE":"AFETR","GP_ID":"214783872","TLE_LINE1":"1 52113U 22029AB  22284.36084756 -.00002014  00000-0 -10848-3 0  9997","DECAY_DATE":null,"TIME_SYSTEM":"UTC","MEAN_MOTION_DOT":"-0.00002014","MEAN_MOTION_DDOT":"0.0000000000000","MEAN_ELEMENT_THEORY":"SGP4","SEMIMAJOR_AXIS":"6917.912"},{"MEAN_MOTION_DDOT":"0.0000000000000","MEAN_ELEMENT_THEORY":"SGP4","SEMIMAJOR_AXIS":"6917.893","GP_ID":"214782620","TLE_LINE1":"1 52114U 22029AC  22284.43812943  .00000104  00000-0  24654-4 0  9990","DECAY_DATE":null,"TIME_SYSTEM":"UTC","MEAN_MOTION_DOT":"0.00000104","FILE":"3603543","PERIAPSIS":"538.439","LAUNCH_DATE":"2022-03-19","APOAPSIS":"541.077","REV_AT_EPOCH":"3279","OBJECT_ID":"2022-029AC","MEAN_MOTION":"15.08835843","SITE":"AFETR","ECCENTRICITY":"0.00019070","ARG_OF_PERICENTER":"46.7296","NORAD_CAT_ID":"52114","ELEMENT_SET_NO":"999","CLASSIFICATION_TYPE":"U","CENTER_NAME":"EARTH","REF_FRAME":"TEME","MEAN_ANOMALY":"313.3855","OBJECT_TYPE":"PAYLOAD","EPOCH":"2022-10-11T10:30:54.382752","RCS_SIZE":"LARGE","RA_OF_ASC_NODE":"269.2674","OBJECT_NAME":"STARLINK-3737","PERIOD":"95.438","BSTAR":"0.00002465400000","COUNTRY_CODE":"US","INCLINATION":"53.2181","EPHEMERIS_TYPE":"0","TLE_LINE2":"2 52114  53.2181 269.2674 0001907  46.7296 313.3855 15.08835843 32796"},{"DECAY_DATE":null,"GP_ID":"214788120","TLE_LINE1":"1 52115U 22029AD  22284.35349149 -.00000689  00000-0 -25169-4 0  9997","MEAN_MOTION_DOT":"-0.00000689","TIME_SYSTEM":"UTC","MEAN_MOTION_DDOT":"0.0000000000000","SEMIMAJOR_AXIS":"6917.897","MEAN_ELEMENT_THEORY":"SGP4","PERIAPSIS":"538.536","LAUNCH_DATE":"2022-03-19","APOAPSIS":"540.987","FILE":"3603857","ECCENTRICITY":"0.00017710","SITE":"AFETR","MEAN_MOTION":"15.08834707","REV_AT_EPOCH":"3278","OBJECT_ID":"2022-029AD","MEAN_ANOMALY":"310.6649","OBJECT_TYPE":"PAYLOAD","ELEMENT_SET_NO":"999","NORAD_CAT_ID":"52115","ARG_OF_PERICENTER":"49.4498","CENTER_NAME":"EARTH","REF_FRAME":"TEME","CLASSIFICATION_TYPE":"U","BSTAR":"-0.00002516900000","PERIOD":"95.438","OBJECT_NAME":"STARLINK-3685","RA_OF_ASC_NODE":"269.6538","EPHEMERIS_TYPE":"0","TLE_LINE2":"2 52115  53.2195 269.6538 0001771  49.4498 310.6649 15.08834707 32786","INCLINATION":"53.2195","COUNTRY_CODE":"US","RCS_SIZE":"LARGE","EPOCH":"2022-10-11T08:29:01.664736"},{"MEAN_MOTION_DOT":"-0.00001115","TIME_SYSTEM":"UTC","GP_ID":"214783622","TLE_LINE1":"1 52116U 22029AE  22284.43077457 -.00001115  00000-0 -51985-4 0  9997","DECAY_DATE":null,"MEAN_ELEMENT_THEORY":"SGP4","SEMIMAJOR_AXIS":"6917.909","MEAN_MOTION_DDOT":"0.0000000000000","MEAN_MOTION":"15.08830695","OBJECT_ID":"2022-029AE","REV_AT_EPOCH":"3279","SITE":"AFETR","ECCENTRICITY":"0.00016230","FILE":"3603543","LAUNCH_DATE":"2022-03-19","APOAPSIS":"540.897","PERIAPSIS":"538.651","OBJECT_TYPE":"PAYLOAD","MEAN_ANOMALY":"311.7015","CLASSIFICATION_TYPE":"U","REF_FRAME":"TEME","CENTER_NAME":"EARTH","ARG_OF_PERICENTER":"48.4116","NORAD_CAT_ID":"52116","ELEMENT_SET_NO":"999","COUNTRY_CODE":"US","INCLINATION":"53.2178","EPHEMERIS_TYPE":"0","TLE_LINE2":"2 52116  53.2178 269.3010 0001623  48.4116 311.7015 15.08830695 32794","RA_OF_ASC_NODE":"269.3010","OBJECT_NAME":"STARLINK-3735","PERIOD":"95.438","BSTAR":"-0.00005198500000","EPOCH":"2022-10-11T10:20:18.922848","RCS_SIZE":"LARGE"},{"OBJECT_TYPE":"PAYLOAD","MEAN_ANOMALY":"319.4056","REF_FRAME":"TEME","CENTER_NAME":"EARTH","CLASSIFICATION_TYPE":"U","ARG_OF_PERICENTER":"40.7097","ELEMENT_SET_NO":"999","NORAD_CAT_ID":"52117","COUNTRY_CODE":"US","TLE_LINE2":"2 52117  53.2201 269.6815 0002156  40.7097 319.4056 15.08834261 32796","EPHEMERIS_TYPE":"0","INCLINATION":"53.2201","OBJECT_NAME":"STARLINK-3738","RA_OF_ASC_NODE":"269.6815","BSTAR":"0.00000033444000","PERIOD":"95.438","EPOCH":"2022-10-11T08:18:26.083872","RCS_SIZE":"LARGE","TIME_SYSTEM":"UTC","MEAN_MOTION_DOT":"-0.00000283","GP_ID":"214784372","TLE_LINE1":"1 52117U 22029AF  22284.34613523 -.00000283  00000-0  33444-6 0  9994","DECAY_DATE":null,"MEAN_ELEMENT_THEORY":"SGP4","SEMIMAJOR_AXIS":"6917.898","MEAN_MOTION_DDOT":"0.0000000000000","OBJECT_ID":"2022-029AF","MEAN_MOTION":"15.08834261","REV_AT_EPOCH":"3279","ECCENTRICITY":"0.00021560","SITE":"AFETR","FILE":"3603543","LAUNCH_DATE":"2022-03-19","APOAPSIS":"541.254","PERIAPSIS":"538.271"},{"APOAPSIS":"541.225","LAUNCH_DATE":"2022-03-19","PERIAPSIS":"538.310","FILE":"3603543","ECCENTRICITY":"0.00021070","SITE":"AFETR","MEAN_MOTION":"15.08832770","OBJECT_ID":"2022-029AG","REV_AT_EPOCH":"3280","DECAY_DATE":null,"TLE_LINE1":"1 52118U 22029AG  22284.48964861 -.00000013  00000-0  17270-4 0  9992","GP_ID":"214783120","MEAN_MOTION_DOT":"-0.00000013","TIME_SYSTEM":"UTC","MEAN_MOTION_DDOT":"0.0000000000000","SEMIMAJOR_AXIS":"6917.902","MEAN_ELEMENT_THEORY":"SGP4","BSTAR":"0.00001727000000","PERIOD":"95.438","OBJECT_NAME":"STARLINK-3743","RA_OF_ASC_NODE":"269.0309","TLE_LINE2":"2 52118  53.2172 269.0309 0002107  43.2854 316.8303 15.08832770 32802","EPHEMERIS_TYPE":"0","INCLINATION":"53.2172","COUNTRY_CODE":"US","RCS_SIZE":"LARGE","EPOCH":"2022-10-11T11:45:05.639904","MEAN_ANOMALY":"316.8303","OBJECT_TYPE":"PAYLOAD","ELEMENT_SET_NO":"999","NORAD_CAT_ID":"52118","ARG_OF_PERICENTER":"43.2854","REF_FRAME":"TEME","CENTER_NAME":"EARTH","CLASSIFICATION_TYPE":"U"},{"OBJECT_TYPE":"PAYLOAD","MEAN_ANOMALY":"316.7989","REF_FRAME":"TEME","CENTER_NAME":"EARTH","CLASSIFICATION_TYPE":"U","ELEMENT_SET_NO":"999","NORAD_CAT_ID":"52119","ARG_OF_PERICENTER":"43.3137","TLE_LINE2":"2 52119  53.2182 269.7134 0001697  43.3137 316.7989 15.08833659 32799","EPHEMERIS_TYPE":"0","INCLINATION":"53.2182","COUNTRY_CODE":"US","BSTAR":"0.00005726700000","PERIOD":"95.438","OBJECT_NAME":"STARLINK-3558","RA_OF_ASC_NODE":"269.7134","RCS_SIZE":"LARGE","EPOCH":"2022-10-11T08:07:49.872288","MEAN_MOTION_DOT":"0.00000623","TIME_SYSTEM":"UTC","DECAY_DATE":null,"GP_ID":"214788090","TLE_LINE1":"1 52119U 22029AH  22284.33877167  .00000623  00000-0  57267-4 0  9995","SEMIMAJOR_AXIS":"6917.900","MEAN_ELEMENT_THEORY":"SGP4","MEAN_MOTION_DDOT":"0.0000000000000","ECCENTRICITY":"0.00016970","SITE":"AFETR","MEAN_MOTION":"15.08833659","OBJECT_ID":"2022-029AH","REV_AT_EPOCH":"3279","PERIAPSIS":"538.591","LAUNCH_DATE":"2022-03-19","APOAPSIS":"540.939","FILE":"3603845"},{"ELEMENT_SET_NO":"999","NORAD_CAT_ID":"52120","ARG_OF_PERICENTER":"48.2081","CENTER_NAME":"EARTH","REF_FRAME":"TEME","CLASSIFICATION_TYPE":"U","MEAN_ANOMALY":"311.9073","OBJECT_TYPE":"PAYLOAD","RCS_SIZE":"LARGE","EPOCH":"2022-10-11T08:23:43.101024","BSTAR":"0.00001315600000","PERIOD":"95.438","OBJECT_NAME":"STARLINK-3534","RA_OF_ASC_NODE":"269.6618","EPHEMERIS_TYPE":"0","TLE_LINE2":"2 52120  53.2181 269.6618 0001901  48.2081 311.9073 15.08835903 32791","INCLINATION":"53.2181","COUNTRY_CODE":"US","MEAN_MOTION_DDOT":"0.0000000000000","SEMIMAJOR_AXIS":"6917.893","MEAN_ELEMENT_THEORY":"SGP4","DECAY_DATE":null,"GP_ID":"214784122","TLE_LINE1":"1 52120U 22029AJ  22284.34980441 -.00000079  00000-0  13156-4 0  9993","MEAN_MOTION_DOT":"-0.00000079","TIME_SYSTEM":"UTC","PERIAPSIS":"538.443","LAUNCH_DATE":"2022-03-19","APOAPSIS":"541.073","FILE":"3603543","ECCENTRICITY":"0.00019010","SITE":"AFETR","OBJECT_ID":"2022-029AJ","MEAN_MOTION":"15.08835903","REV_AT_EPOCH":"3279"}];
